QZS-1R                  
1 49336U 21096A   24194.74598042 -.00000288  00000+0  00000+0 0  9999
2 49336  35.9943  90.1414 0757504 271.9826 329.9756  1.00250377  9940
